$$SOE
2459580.500000000, A.D. 2022-Jan-01 00:00:00.0000, 1.607902039364242E+07, -2.412433343975278E+08, 8.878218346237500E+07,
2459587.500000000, A.D. 2022-Jan-08 00:00:00.0000, 3.133461624570664E+07, -2.385280064621311E+08, 9.024629822038278E+07,
2459594.500000000, A.D. 2022-Jan-15 00:00:00.0000, 4.650056736614484E+07, -2.351304128203458E+08, 9.145226082320186E+07,
2459601.500000000, A.D. 2022-Jan-22 00:00:00.0000, 6.153288410079546E+07, -2.310570570877771E+08, 9.239537251799102E+07,
2459608.500000000, A.D. 2022-Jan-29 00:00:00.0000, 7.638798035679188E+07, -2.263181024914158E+08, 9.307230769950455E+07,
2459615.500000000, A.D. 2022-Feb-05 00:00:00.0000, 9.102312298017024E+07, -2.209272940409470E+08, 9.348115807323456E+07,
2459622.500000000, A.D. 2022-Feb-12 00:00:00.0000, 1.053968700776874E+08, -2.149018174780619E+08, 9.362145144313037E+07,
2459629.500000000, A.D. 2022-Feb-19 00:00:00.0000, 1.194694847639000E+08, -2.082620966605446E+08, 9.349414493353471E+07,
2459636.500000000, A.D. 2022-Feb-26 00:00:00.0000, 1.332033119342855E+08, -2.010315364898041E+08, 9.310159322063167E+07,
2459643.500000000, A.D. 2022-Mar-05 00:00:00.0000, 1.465631088201521E+08, -1.932362203610817E+08, 9.244749319685124E+07,
2459650.500000000, A.D. 2022-Mar-12 00:00:00.0000, 1.595163222709431E+08, -1.849045720334629E+08, 9.153680739548153E+07,
2459657.500000000, A.D. 2022-Mar-19 00:00:00.0000, 1.720333079620171E+08, -1.760669926070878E+08, 9.037566922360031E+07,
2459664.500000000, A.D. 2022-Mar-26 00:00:00.0000, 1.840874891767855E+08, -1.667554836046314E+08, 8.897127354907128E+07,
2459671.500000000, A.D. 2022-Apr-02 00:00:00.0000, 1.956554552815832E+08, -1.570032668992258E+08, 8.733175645459989E+07,
2459678.500000000, A.D. 2022-Apr-09 00:00:00.0000, 2.067170024185555E+08, -1.468444113606518E+08, 8.546606802184524E+07,
2459685.500000000, A.D. 2022-Apr-16 00:00:00.0000, 2.172551208914675E+08, -1.363134742440538E+08, 8.338384192993590E+07,
2459692.500000000, A.D. 2022-Apr-23 00:00:00.0000, 2.272559335377353E+08, -1.254451634529177E+08, 8.109526554583104E+07,
2459699.500000000, A.D. 2022-Apr-30 00:00:00.0000, 2.367085897722732E+08, -1.142740285211987E+08, 7.861095354042450E+07,
2459706.500000000, A.D. 2022-May-07 00:00:00.0000, 2.456051254830081E+08, -1.028341862329855E+08, 7.594182712963788E+07,
2459713.500000000, A.D. 2022-May-14 00:00:00.0000, 2.539402974560489E+08, -9.115908021103764E+07, 7.309900107210134E+07,
2459720.500000000, A.D. 2022-May-21 00:00:00.0000, 2.617113974179366E+08, -7.928127466600162E+07, 7.009368015011482E+07,
2459727.500000000, A.D. 2022-May-28 00:00:00.0000, 2.689180518907971E+08, -6.723228299322906E+07, 6.693706606725463E+07,
2459734.500000000, A.D. 2022-Jun-04 00:00:00.0000, 2.755620141721801E+08, -5.504243025914601E+07, 6.364027521559484E+07,
2459741.500000000, A.D. 2022-Jun-11 00:00:00.0000, 2.816469538540815E+08, -4.274074753413194E+07, 6.021426740166847E+07,
2459748.500000000, A.D. 2022-Jun-18 00:00:00.0000, 2.871782483659132E+08, -3.035489546396312E+07, 5.666978530171637E+07,
2459755.500000000, A.D. 2022-Jun-25 00:00:00.0000, 2.921627801940901E+08, -1.791111416286018E+07, 5.301730416377170E+07,
2459762.500000000, A.D. 2022-Jul-02 00:00:00.0000, 2.966087427553536E+08, -5.434196370428424E+06, 4.926699108562837E+07,
2459769.500000000, A.D. 2022-Jul-09 00:00:00.0000, 3.005254574347401E+08, 7.052519446918903E+06, 4.542867307336673E+07,
2459776.500000000, A.D. 2022-Jul-16 00:00:00.0000, 3.039232032027240E+08, 1.952714018721526E+07, 4.151181312430001E+07,
2459783.500000000, A.D. 2022-Jul-23 00:00:00.0000, 3.068130575297521E+08, 3.196919636076426E+07, 3.752549366131456E+07,
2459790.500000000, A.D. 2022-Jul-30 00:00:00.0000, 3.092067491250525E+08, 4.435960679496974E+07, 3.347840615191241E+07,
2459797.500000000, A.D. 2022-Aug-06 00:00:00.0000, 3.111165261375945E+08, 5.668063284932876E+07, 2.937884577144479E+07,
2459804.500000000, A.D. 2022-Aug-13 00:00:00.0000, 3.125550387321920E+08, 6.891582704118806E+07, 2.523471059953823E+07,
2459811.500000000, A.D. 2022-Aug-20 00:00:00.0000, 3.135352339869062E+08, 8.104997745395827E+07, 2.105350470620336E+07,
2459818.500000000, A.D. 2022-Aug-27 00:00:00.0000, 3.140702625327075E+08, 9.306904881107901E+07, 1.684234438503147E+07,
2459825.500000000, A.D. 2022-Sep-03 00:00:00.0000, 3.141733964251975E+08, 1.049601214664643E+08, 1.260796689630429E+07,
2459832.500000000, A.D. 2022-Sep-10 00:00:00.0000, 3.138579575140479E+08, 1.167113294683856E+08, 8.356741179513976E+06,
2459839.500000000, A.D. 2022-Sep-17 00:00:00.0000, 3.131372554846166E+08, 1.283117986221936E+08, 4.094680066646352E+06,
2459846.500000000, A.D. 2022-Sep-24 00:00:00.0000, 3.120245347745783E+08, 1.397515852453045E+08, -1.725464152604640E+05,
2459853.500000000, A.D. 2022-Oct-01 00:00:00.0000, 3.105329297662971E+08, 1.510216161755826E+08, -4.439597019219570E+06,
2459860.500000000, A.D. 2022-Oct-08 00:00:00.0000, 3.086754278530628E+08, 1.621136309968331E+08, -8.701444815834403E+06,
2459867.500000000, A.D. 2022-Oct-15 00:00:00.0000, 3.064648386718602E+08, 1.730201280042236E+08, -1.295336235091325E+07,
2459874.500000000, A.D. 2022-Oct-22 00:00:00.0000, 3.039137665974103E+08, 1.837343124608083E+08, -1.719090655680098E+07,
2459881.500000000, A.D. 2022-Oct-29 00:00:00.0000, 3.010345883354048E+08, 1.942500447041010E+08, -2.140990401792862E+07,
2459888.500000000, A.D. 2022-Nov-05 00:00:00.0000, 2.978394371002886E+08, 2.045617909240792E+08, -2.560643668641856E+07,
2459895.500000000, A.D. 2022-Nov-12 00:00:00.0000, 2.943401908505248E+08, 2.146645779128781E+08, -2.977682786224768E+07,
2459902.500000000, A.D. 2022-Nov-19 00:00:00.0000, 2.905484633597630E+08, 2.245539508261917E+08, -3.391762852518706E+07,
2459909.500000000, A.D. 2022-Nov-26 00:00:00.0000, 2.864755979385118E+08, 2.342259335184836E+08, -3.802560413156216E+07,
2459916.500000000, A.D. 2022-Dec-03 00:00:00.0000, 2.821326635729345E+08, 2.436769913719783E+08, -4.209772193255457E+07,
2459923.500000000, A.D. 2022-Dec-10 00:00:00.0000, 2.775304531701048E+08, 2.529039965488099E+08, -4.613113884348095E+07,
2459930.500000000, A.D. 2022-Dec-17 00:00:00.0000, 2.726794836175655E+08, 2.619041955378209E+08, -5.012318988348397E+07,
2459937.500000000, A.D. 2022-Dec-24 00:00:00.0000, 2.675899974860286E+08, 2.706751788180731E+08, -5.407137720665330E+07,
2459944.500000000, A.D. 2022-Dec-31 00:00:00.0000, 2.622719664865173E+08, 2.792148526298878E+08, -5.797335974687484E+07,
2459951.500000000, A.D. 2023-Jan-07 00:00:00.0000, 2.567350965893261E+08, 2.875214136950350E+08, -6.182694340142730E+07,
2459958.500000000, A.D. 2023-Jan-14 00:00:00.0000, 2.509888326457767E+08, 2.955933272595799E+08, -6.563007151858190E+07,
2459965.500000000, A.D. 2023-Jan-21 00:00:00.0000, 2.450423617000917E+08, 3.034293051719664E+08, -6.938081587240213E+07,
2459972.500000000, A.D. 2023-Jan-28 00:00:00.0000, 2.389046185215428E+08, 3.110282836910115E+08, -7.307736846060745E+07,
2459979.500000000, A.D. 2023-Feb-04 00:00:00.0000, 2.325842930278982E+08, 3.183894039385423E+08, -7.671803383954018E+07,
2459986.500000000, A.D. 2023-Feb-11 00:00:00.0000, 2.260898376983610E+08, 3.255119946950944E+08, -8.030122182578123E+07,
2459993.500000000, A.D. 2023-Feb-18 00:00:00.0000, 2.194294748228216E+08, 3.323955566139982E+08, -8.382544060413200E+07,
2460000.500000000, A.D. 2023-Feb-25 00:00:00.0000, 2.126112037744551E+08, 3.390397475947154E+08, -8.728929025716166E+07,
2460007.500000000, A.D. 2023-Mar-04 00:00:00.0000, 2.056428083429670E+08, 3.454443692407674E+08, -9.069145670122826E+07,
2460014.500000000, A.D. 2023-Mar-11 00:00:00.0000, 1.985318641006506E+08, 3.516093543144228E+08, -9.403070600794604E+07,
2460021.500000000, A.D. 2023-Mar-18 00:00:00.0000, 1.912857457992463E+08, 3.575347550575025E+08, -9.730587909614193E+07,
2460028.500000000, A.D. 2023-Mar-25 00:00:00.0000, 1.839116349598315E+08, 3.632207322583399E+08, -1.005158867952548E+08,
2460035.500000000, A.D. 2023-Apr-01 00:00:00.0000, 1.764165280484297E+08, 3.686675453928860E+08, -1.036597052681189E+08,
2460042.500000000, A.D. 2023-Apr-08 00:00:00.0000, 1.688072445989814E+08, 3.738755450025218E+08, -1.067363716193608E+08,
2460049.500000000, A.D. 2023-Apr-15 00:00:00.0000, 1.610904329271464E+08, 3.788451661400403E+08, -1.097449795469740E+08,
2460056.500000000, A.D. 2023-Apr-22 00:00:00.0000, 1.532725752262634E+08, 3.835769197765462E+08, -1.126846754348847E+08,
2460063.500000000, A.D. 2023-Apr-29 00:00:00.0000, 1.453599947698819E+08, 3.880713843726285E+08, -1.155546549386481E+08,
2460070.500000000, A.D. 2023-May-06 00:00:00.0000, 1.373588634525060E+08, 3.923291993448539E+08, -1.183541597415883E+08,
2460077.500000000, A.D. 2023-May-13 00:00:00.0000, 1.292752086837126E+08, 3.963510594877340E+08, -1.210824744491009E+08,
2460084.500000000, A.D. 2023-May-20 00:00:00.0000, 1.211149198640695E+08, 4.001377098188134E+08, -1.237389236685507E+08,
2460091.500000000, A.D. 2023-May-27 00:00:00.0000, 1.128837546330464E+08, 4.036899407798307E+08, -1.263228692819757E+08,
2460098.500000000, A.D. 2023-Jun-03 00:00:00.0000, 1.045873449450637E+08, 4.070085837853380E+08, -1.288337079027293E+08,
2460105.500000000, A.D. 2023-Jun-10 00:00:00.0000, 9.623120299745846E+07, 4.100945070731818E+08, -1.312708685081490E+08,
2460112.500000000, A.D. 2023-Jun-17 00:00:00.0000, 8.782072710053305E+07, 4.129486117675264E+08, -1.336338102508484E+08,
2460119.500000000, A.D. 2023-Jun-24 00:00:00.0000, 7.936120781168674E+07, 4.155718281835033E+08, -1.359220204637932E+08,
2460126.500000000, A.D. 2023-Jul-01 00:00:00.0000, 7.085783458996743E+07, 4.179651131778173E+08, -1.381350128061776E+08,
2460133.500000000, A.D. 2023-Jul-08 00:00:00.0000, 6.231570130207538E+07, 4.201294493447264E+08, -1.402723253212180E+08,
2460140.500000000, A.D. 2023-Jul-15 00:00:00.0000, 5.373980930727927E+07, 4.220658432045090E+08, -1.423335185104596E+08,
2460147.500000000, A.D. 2023-Jul-22 00:00:00.0000, 4.513507164490962E+07, 4.237753213316349E+08, -1.443181738243058E+08,
$$EOE